orden;nombre;direccion;postal;poblacion;municipio;provincia;telefono;actividad;aplicacion;mtohardware;email;latitude;longitude
1;Gaviño Carabantes, Francisco;O`Donnell, 12;41001;;Sevilla;SEVILLA;;Oficina de Farmacia;;;;37.3920537;-5.995779399999947
2;Farmacia Díaz-Arca CB;San Pablo, 5;41001;;Sevilla;SEVILLA;;Oficina de Farmacia;;;;37.3904709;-5.997904100000028
3;Farmacia Pérez Miranda CB;Rafael Gonzalez Abreu, 7;41001;;Sevilla;SEVILLA;;Oficina de Farmacia;;;;37.3904297;-5.999957999999992
4;Gonzalez Molina, Nieves;C/ Pastor y Landero nº 33;41001;;Sevilla;SEVILLA;;Oficina de Farmacia;;;;37.387318;-5.998901499999988
5;Gutiérrez Gómez de Merodio, Mª Manuela;Zaragoza, 13;41001;;Sevilla;SEVILLA;;Oficina de Farmacia;;;;37.388768;-5.998486299999968
6;Mª Auxiliadora Escalante Fernández-Palacios;Alfonso XII, 53;41001;;Sevilla;SEVILLA;;Oficina de Farmacia;;;;37.3932457;-6.000679600000012
7;Melgarejo Domínguez, Luis;Tetuán, 4;41001;;Sevilla;SEVILLA;;Oficina de Farmacia;;;;37.390294;-5.9953336999999465
8;Rodríguez de Moya Vera, Javier;Marques de Paradas, 53;41001;;Sevilla;SEVILLA;;Oficina de Farmacia;;;;37.3894329;-6.0009889000000385
9;Rojas Garcia, Manuel de;Garcia de Vinuesa, 38;41001;;Sevilla;SEVILLA;;Oficina de Farmacia;;;;37.3863478;-5.995945600000027
10;Romero Mozo, Mariana;Arjona, 4;41001;;Sevilla;SEVILLA;;Oficina de Farmacia;;;;37.3898467;-6.002725400000031
11;Victoria y Juan Manuel León CB;Marques de Paradas, 27;41001;;Sevilla;SEVILLA;;Oficina de Farmacia;;;;37.3914766;-6.001505800000018
12;Burgos Gonzalez, Magdalena;Feria, 116;41002;;Sevilla;SEVILLA;;Oficina de Farmacia;;;;37.4002498;-5.991779899999983
13;Delso Santacruz, Lourdes;Jesus del Gran Poder, 14;41002;;Sevilla;SEVILLA;;Oficina de Farmacia;;;;37.3943994;-5.996010500000011
14;Eguino Toscano, Leon de;Calatrava, 42;41002;;Sevilla;SEVILLA;;Oficina de Farmacia;;;;37.4027098;-5.994754100000023
15;Farmacia Garcia de Cosio y Morera CB;Baños, 60-62. Esq.Goles;41002;;Sevilla;SEVILLA;;Oficina de Farmacia;;;;37.3976;-5.997800500000039
16;Galera Ruiz, María Rosa;Alameda de Hércules, 24;41002;;Sevilla;SEVILLA;;Oficina de Farmacia;;;;37.3979356;-5.99434640000004
17;Holguin Matamoros, Ana;Trajano, 40;41002;;Sevilla;SEVILLA;;Oficina de Farmacia;;;;37.3961349;-5.994690900000023
18;Merino Merida, Elena;Amor de Dios, 2;41002;;Sevilla;SEVILLA;;Oficina de Farmacia;;;;37.3936193;-5.994856000000027
19;Pozo Cortes, Amparo del;Feria, 29;41002;;Sevilla;SEVILLA;;Oficina de Farmacia;;;;37.3968608;-5.991381100000012
20;Queraltó Hernández, Natalia;Baños, 20;41002;;Sevilla;SEVILLA;;Oficina de Farmacia;;;;37.3952749;-5.998248500000045
21;Rando Moral, Juan A.;Santa Clara, 53;41002;;Sevilla;SEVILLA;;Oficina de Farmacia;;;;37.4006774;-5.996593800000028
22;Rodriguez Rodriguez, Socorro;Feria, 126;41002;;Sevilla;SEVILLA;;Oficina de Farmacia;;;;37.4007777;-5.991717699999981
23;Soto Diaz, Maria Isabel;Jose Gestoso, 2;41002;;Sevilla;SEVILLA;;Oficina de Farmacia;;;;37.3936669;-5.992828499999973
24;Valdes Sanz, Francisco Javier;Cardenal Spinola, 33;41002;;Sevilla;SEVILLA;;Oficina de Farmacia;;;;37.3968397;-5.99691370000005
25;Vega Olave, Armando;Peris Mencheta, 38;41002;;Sevilla;SEVILLA;;Oficina de Farmacia;;;;37.3997283;-5.992768000000069
26;Farmacia del Pilar CB;Feria, 160;41002;;Sevilla;SEVILLA;;Oficina de Farmacia;;;;37.40253;-5.991669999999999
27;Farmacia San Vicente SC;San Vicente, 87;41002;;Sevilla;SEVILLA;;Oficina de Farmacia;;;;37.3978649;-5.998818099999994
28;Alvarez Díaz, Jaime;Maria Auxiliadora, 6;41003;;Sevilla;SEVILLA;;Oficina de Farmacia;;;;37.394815;-5.983230400000025
29;Perez-Solano Vazquez, Rosario;Plz. Encarnacion, 10 y Alcazares, 2;41003;;Sevilla;SEVILLA;;Farmacia Optica;;;;37.39421129999999;-5.985901600000034
30;Alvarez Delgado, Eva María;Puerta del Osario, 7;41003;;Sevilla;SEVILLA;;Oficina de Farmacia;;;;37.393216;-5.9847892999999885
31;Candau Cruz-Conde, Ma. Auxiliadora;Arrayan, 40;41003;;Sevilla;SEVILLA;;Oficina de Farmacia;;;;37.3993875;-5.988986899999986
32;Carbajal Guerrero, Miguel;Juan Antonio Cavestany, 3;41003;;Sevilla;SEVILLA;;Oficina de Farmacia;;;;37.3887543;-5.982076799999959
33;Carrascosa Moreno, Juan B.;Jose Laguillo,27.Edif.Saturno.Bl.3.loc4;41003;;Sevilla;SEVILLA;;Oficina de Farmacia;;;;37.39421129999999;-5.985901600000034
34;Farmacia G.Herrera CB;San Hermenegildo, 40;41003;;Sevilla;SEVILLA;;Oficina de Farmacia;;;;37.398045;-5.983318000000054
35;Farmacia Neto CB;Recaredo, 45;41003;;Sevilla;SEVILLA;;Oficina de Farmacia;;;;37.3929613;-5.984277199999951
36;Farmacia Reyes CB;Amador de los Rios, 31;41003;;Sevilla;SEVILLA;;Oficina de Farmacia;;;;37.3922102;-5.982900599999994
37;Farmacia Villalobos Justo CB;Ronda de Capuchinos, 2;41003;;Sevilla;SEVILLA;;Oficina de Farmacia;;;;37.39995040000001;-5.984639399999992
38;Fernandez-Peñaranda Perez, Francisco;Plz.Encarnacion, 22;41003;;Sevilla;SEVILLA;;Oficina de Farmacia;;;;37.3921785;-5.99154980000003
39;Lasarte Carrero, Concepción;Plaza Cristo de Burgos, 3;41003;;Sevilla;SEVILLA;;Oficina de Farmacia;;;;37.3923638;-5.989513299999999
40;Pérez Fernández, Manuel;Plza. San Marcos, esq. c/Castellar,loca;41003;;Sevilla;SEVILLA;;Oficina de Farmacia;;;;37.39421129999999;-5.985901600000034
41;Ramos Palma, Rosalía;Demetrio de los Rios, 3;41003;;Sevilla;SEVILLA;;Oficina de Farmacia;;;;37.3856355;-5.9857035
42;Ridruejo Ramírez, María;Gonzalo Bilbao, 20;41003;;Sevilla;SEVILLA;;Oficina de Farmacia;;;;37.391734;-5.980264700000021
43;Roman Alvarado Jaime;San Julián, 1;41003;;Sevilla;SEVILLA;;Oficina de Farmacia;;;;37.3986904;-5.9857633000000305
44;Román Silva, Manuel;Menendez Pelayo, 69;41003;;Sevilla;SEVILLA;;Oficina de Farmacia;;;;37.38918650000001;-5.98466540000004
45;Sanchez Leon, Maria Jose;Orfila, 11;41003;;Sevilla;SEVILLA;;Oficina de Farmacia;;;;37.3930449;-5.993788099999961
46;Sarmiento Robles, José Luis;Lope de Vega, 2;41003;;Sevilla;SEVILLA;;Oficina de Farmacia;;;;37.3902398;-5.982459100000028
47;Wamba Carnicero, Pedro;Menendez y Pelayo, 31;41003;;Sevilla;SEVILLA;;Oficina de Farmacia;;;;37.3873922;-5.9853634999999485
48;Farmacia San Juan de la Palma CB;San Juan de la Palma, 15;41003;;Sevilla;SEVILLA;;Oficina de Farmacia;;;;37.3950855;-5.990657999999939
49;Aguilar Garcia, Concepcion;Plaza Ruiz de Alda.Blq.11;41004;;Sevilla;SEVILLA;;Oficina de Farmacia;;;;37.3846967;-5.989867600000025
50;Alvarez Bernáldez, Susana;Avd. de Cadiz, 6;41004;;Sevilla;SEVILLA;;Oficina de Farmacia;;;;37.3826566;-5.9859553000000005
51;Calle Bautista, Jose Antonio;Francos, 17;41004;;Sevilla;SEVILLA;;Oficina de Farmacia;;;;37.3891058;-5.992688899999962
52;Carrasco García, Patricia;Puente y Pellon, 18;41004;;Sevilla;SEVILLA;;Oficina de Farmacia;;;;37.3914811;-5.992299300000013
53;Farmacia Zapata-Holguín CB;Perla, 1;41004;;Sevilla;SEVILLA;;Oficina de Farmacia;;;;37.3891302;-5.990230999999994
54;Galán Parra, Mª. Dolores;Fernando Villalon, 1-Huerta de la Salud;41004;;Sevilla;SEVILLA;;Oficina de Farmacia;;;;37.3846967;-5.989867600000025
55;Illanes Fraile, Amparo;Plaza Alfalfa, 11;41004;;Sevilla;SEVILLA;;Oficina de Farmacia;;;;37.3902999;-5.990939900000058
56;Mª Teresa Iriarte y Marina García;Menendez Pelayo, 12;41004;;Sevilla;SEVILLA;;Oficina de Farmacia;;;;37.3835326;-5.986928499999976
57;Mª Soledad Ramírez y Mª Dolores Saez;A.Cortes Llado 11, Bajo-Izqda.;41004;;Sevilla;SEVILLA;;Oficina de Farmacia;;;;37.3846967;-5.989867600000025
58;Ordoñez Morejón, Mª Victoria;Argote de Molina, 25;41004;;Sevilla;SEVILLA;;Oficina de Farmacia;;;;37.3875344;-5.9924312000000555
59;Pérez López, Esperanza Isabel;Santa Maria La Blanca, 11;41004;;Sevilla;SEVILLA;;Oficina de Farmacia;;;;37.3862315;-5.987089100000048
60;Pérez-Solano Rodríguez,Bibiana;Avda.Constitucion, 27;41004;;Sevilla;SEVILLA;;Oficina de Farmacia;;;;37.3824592;-5.9930521
61;Rodriguez Cañas, M.Jesus;Mateos Gago, 14;41004;;Sevilla;SEVILLA;;Oficina de Farmacia;;;;37.3860652;-5.990941700000008
62;Rider Perez, Antonio;Villegas y Marmolejos, 7;41005;;Sevilla;SEVILLA;;Oficina de Farmacia;;;;37.3774851;-5.971899000000008
63;Silva Mejías, Marta;Araquil, 1. Bda.El Juncal;41005;;Sevilla;SEVILLA;;Farmacia Optica;;;;37.3793117;-5.9647535999999945
64;Alarcón Ceballos, Mª Luisa;Urbion Bloq. 1;41005;;Sevilla;SEVILLA;;Oficina de Farmacia;;;;37.3793117;-5.9647535999999945
65;Algora Castro María;Marques de Nervion, 41;41005;;Sevilla;SEVILLA;;Oficina de Farmacia;;;;37.3831914;-5.968428099999983
66;Andrés Martin, José Manuel;Avd. Cruz del Campo, 39;41005;;Sevilla;SEVILLA;;Oficina de Farmacia;;;;37.3829277;-5.9654482999999345
67;Biscarri y González CB;Benito Mas y Prat, 5.Los Mundiales.;41005;;Sevilla;SEVILLA;;Oficina de Farmacia;;;;37.3793117;-5.9647535999999945
68;Calero Galán, Luisa Rosa;Rio Guadalmedina, 1;41005;;Sevilla;SEVILLA;;Oficina de Farmacia;;;;37.3724599;-5.966279999999983
69;Calvo Ambel, Carmen;Mariano de Benlliure, 81;41005;;Sevilla;SEVILLA;;Oficina de Farmacia;;;;37.3824236;-5.962669099999971
70;Coveñas Peña, Rafael;Luis Montoto, 56;41005;;Sevilla;SEVILLA;;Oficina de Farmacia;;;;37.3872288;-5.97897839999996
71;Farmacia Acuña CB;Divino Redentor, 6;41005;;Sevilla;SEVILLA;;Oficina de Farmacia;;;;37.3811828;-5.97177529999999
72;Farmacia Fernández Saez CB;Eduardo Dato, 41.;41005;;Sevilla;SEVILLA;;Oficina de Farmacia;;;;37.383513;-5.976662000000033
73;Farmacia Ferrero CB;Marques del Nervion, 103-A;41005;;Sevilla;SEVILLA;;Oficina de Farmacia;;;;37.37648799999999;-5.970023900000001
74;Farmacia Huerta Infantes CB;Luis Montoto, 146;41005;;Sevilla;SEVILLA;;Oficina de Farmacia;;;;37.3880089;-5.978028799999947
75;Farmacia Reyes Gallego CB;Jose Luis de Casso,7,Esq.Rico Cejudo;41005;;Sevilla;SEVILLA;;Oficina de Farmacia;;;;37.3793117;-5.9647535999999945
76;Farmacia Serratosa-Morón SC;Alejandro Collantes,86;41005;;Sevilla;SEVILLA;;Oficina de Farmacia;;;;37.3839905;-5.961458499999935
77;Farmacia Terol CB;Naranco, 6.Bda El Plantinar;41005;;Sevilla;SEVILLA;;Oficina de Farmacia;;;;37.3793117;-5.9647535999999945
78;Galdo Seco, Mª. Carmen;Eduardo Dato, 24;41005;;Sevilla;SEVILLA;;Oficina de Farmacia;;;;37.3826384;-5.972840499999961
79;Gomez Cabrera, Isabel;Andrés Bernáldez, 19;41005;;Sevilla;SEVILLA;;Oficina de Farmacia;;;;37.3863783;-5.9629125999999815
80;Gutiérrez Aranda, Mª Carmen;Marques de Pickman, 13;41005;;Sevilla;SEVILLA;;Oficina de Farmacia;;;;37.3814876;-5.963530100000071
81;Izquierdo Meroño, Maria Faustina;Gran Plaza, 6-Ac;41005;;Sevilla;SEVILLA;;Oficina de Farmacia;;;;37.3793117;-5.9647535999999945
82;María Angeles Fernández e Hija CB;Espinosa y Carcel, 16;41005;;Sevilla;SEVILLA;;Oficina de Farmacia;;;;37.3787134;-5.972342300000037
83;Martín Chaves, Eduardo;Avd. Alcalde Juan Fernández, 15;41005;;Sevilla;SEVILLA;;Oficina de Farmacia;;;;37.3727492;-5.97002950000001
84;Martín-Sacristan Nuñez, Inmaculada;San Juan de Dios, 6;41005;;Sevilla;SEVILLA;;Oficina de Farmacia;;;;37.3814599;-5.96994559999996
85;Martinez Villaseñor de Medina, M Carmen;Plaza Aljarafe, 2;41005;;Sevilla;SEVILLA;;Oficina de Farmacia;;;;37.3765274;-5.974651300000005
86;Recio Mir, Alberto;Avd. Ramon y Cajal, 9;41005;;Sevilla;SEVILLA;;Oficina de Farmacia;;;;37.37657850000001;-5.972476400000005
87;Peña Peña, Pastora;Avd. Ciudad Jardin, 65;41005;;Sevilla;SEVILLA;;Oficina de Farmacia;;;;37.3781137;-5.96606589999999
88;Ríos Muñoz, Vanesa;Juan de Padilla, 5;41005;;Sevilla;SEVILLA;;Oficina de Farmacia;;;;37.3789148;-5.968029699999988
89;Ramos Muñoz, Mº Angeles;Plaza del Juncal, 1;41005;;Sevilla;SEVILLA;;Oficina de Farmacia;;;;37.3745887;-5.967399200000045
90;Rodriguez Almendros Farmaceuticos SC;Avda.Eduardo Dato, 46;41005;;Sevilla;SEVILLA;;Oficina de Farmacia;;;;37.3816379;-5.96762149999995
91;Romero Candau, Juan;Alfonso XI, 43;41005;;Sevilla;SEVILLA;;Oficina de Farmacia;;;;37.37972000000001;-5.963709999999992
92;S.L.P. Fercafarma 1988;Luis de Morales, 26 Edificio Estadio;41005;;Sevilla;SEVILLA;;Oficina de Farmacia;;;;37.3793117;-5.9647535999999945
93;Sanchez Fernandez, Pilar;Avd. de la Cruz del Campo, 4;41005;;Sevilla;SEVILLA;;Oficina de Farmacia;;;;37.387148;-5.965319499999964
94;Rodríguez García, Enrique;Juglar, Pasaje, Local 3;41005;;Sevilla;SEVILLA;;Oficina de Farmacia;;;;37.3793117;-5.9647535999999945
95;Villamor Urban, Sarah M.;Marqués de Pikman, 65;41005;;Sevilla;SEVILLA;;Oficina de Farmacia;;;;37.3812438;-5.960719199999971
96;Guerrero Blasco, Beatriz;Eduardo Dato, 22.Huerta del Rey.;41005;;Sevilla;SEVILLA;;Oficina de Farmacia;;;;37.3793117;-5.9647535999999945
97;Farmacia Prensa CB;Marques de Nervion,91.Edif.La Prensa.;41005;;Sevilla;SEVILLA;;Oficina de Farmacia;;;;37.3793117;-5.9647535999999945
98;Palma del Moral, Alejandro;Amor, 11;41006;;Sevilla;SEVILLA;;Oficina de Farmacia;;;;37.3847812;-5.943754500000068
99;Farmacia Santa Aurelia CB;Satsuma, 14;41006;;Sevilla;SEVILLA;;Farmacia Optica;;;;37.3847525;-5.946595500000058
100;Araceli Palomar Santa María;Puerto del Escudo,5;41006;;Sevilla;SEVILLA;;Oficina de Farmacia;;;;37.3758013;-5.953388399999994
101;Aramburu Buzón CB;Ofelia Nieto, 21;41006;;Sevilla;SEVILLA;;Oficina de Farmacia;;;;37.3709184;-5.9497570999999425
102;Ariza Toro, Enrique J.;Vasco de Gama, 83;41006;;Sevilla;SEVILLA;;Oficina de Farmacia;;;;37.3707668;-5.946997799999963
103;Bellido Sánchez, José Luis;Candelería, 28;41006;;Sevilla;SEVILLA;;Oficina de Farmacia;;;;37.3822319;-5.953750099999979
104;Bernabeu Bou, Rocio;Juan de Ledesma, 111;41006;;Sevilla;SEVILLA;;Oficina de Farmacia;;;;37.375498;-5.958286799999996
105;Cabeza Artero, Juan Carlos;Tortola, 4;41006;;Sevilla;SEVILLA;;Oficina de Farmacia;;;;37.3857316;-5.9546269999999595
106;Carrillo Herrera, Fernando;Avda. de Hytasa, 97-antigua Heroes de Toledo;41006;;Sevilla;SEVILLA;;Oficina de Farmacia;;;;37.3747865;-5.94889749999993
107;CB Rubio Malo de Molina;Baena, 4 (La Doctora) (La Negrilla);41006;;Sevilla;SEVILLA;;Oficina de Farmacia;;;;37.3747865;-5.94889749999993
108;Cuesta Gallego, Miguel;Afan de Ribera, 108;41006;;Sevilla;SEVILLA;;Oficina de Farmacia;;;;37.3721945;-5.95790599999998
109;Espina Márquez, Domingo;Chucena, edif.Alcaitán, ES1, PL0, PT2;41006;;Sevilla;SEVILLA;;Oficina de Farmacia;;;;37.3747865;-5.94889749999993
110;Farmacia Aramburu CB;Calandria, 1;41006;;Sevilla;SEVILLA;;Oficina de Farmacia;;;;37.3838772;-5.95523819999994
111;Farmacia Cortes Torres CB;Plz.Moradas, 1;41006;;Sevilla;SEVILLA;;Oficina de Farmacia;;;;37.3786263;-5.957450200000039
112;Farmacia Fernández Vega CB;Avd. los Gavilanes, 38 acc, A;41006;;Sevilla;SEVILLA;;Oficina de Farmacia;;;;37.3747865;-5.94889749999993
113;Farmacia González Hidalgo CB;Avd.Gavilanes. Rochelambert.Bl.14;41006;;Sevilla;SEVILLA;;Oficina de Farmacia;;;;37.3747865;-5.94889749999993
114;Farmacia Montes Berriatua CB;Dña.Francisquita,6.La Rosaleda,Juan XXI;41006;;Sevilla;SEVILLA;;Oficina de Farmacia;;;;37.3747865;-5.94889749999993
115;Monzón Moreno, María de la Paz;Ingeniero La Cierva, 49;41006;;Sevilla;SEVILLA;;Oficina de Farmacia;;;;37.37253;-5.94927000000007
116;Farmacia Villafranca SC;Candelera - Local 15;41006;;Sevilla;SEVILLA;;Oficina de Farmacia;;;;37.3747865;-5.94889749999993
117;Garcia Trenado, Jose Guillermo;Nescania, 6. La Rosaleda.;41006;;Sevilla;SEVILLA;;Oficina de Farmacia;;;;37.3747865;-5.94889749999993
118;Gonzalez de la Peña Muñoz, Alejandro;Portobelo, 2;41006;;Sevilla;SEVILLA;;Oficina de Farmacia;;;;37.366;-5.952660000000037
119;Joya Aranda, Candida;Afan de Ribera, 49;41006;;Sevilla;SEVILLA;;Oficina de Farmacia;;;;37.3742797;-5.960893400000032
120;Machuca González, Marina Paula;Avd. Los Gavilanes, 85 acc.A;41006;;Sevilla;SEVILLA;;Oficina de Farmacia;;;;37.3747865;-5.94889749999993
121;Melendo Arancon, Encarnacion;Hytasa nº 6 (antigua Heroes de Toledo);41006;;Sevilla;SEVILLA;;Oficina de Farmacia;;;;37.3747865;-5.94889749999993
122;Molina Segovia, Carmen;Fray Luis de Leon, 29;41006;;Sevilla;SEVILLA;;Oficina de Farmacia;;;;37.3728368;-5.947068800000011
123;Molini Estrada, Luis;Maestro Falla, 28;41006;;Sevilla;SEVILLA;;Oficina de Farmacia;;;;37.373773;-5.959031600000003
124;Murillo Delgado, José Miguel;La Calesera s/n Urb. El Trebol;41006;;Sevilla;SEVILLA;;Oficina de Farmacia;;;;37.3747865;-5.94889749999993
125;Osma Alonso, Pasion;Avda. Hytasa, 57;41006;;Sevilla;SEVILLA;;Oficina de Farmacia;;;;37.3707967;-5.960134899999957
126;Pradas Jiménez, Rafael;Fraternidad, 52;41006;;Sevilla;SEVILLA;;Oficina de Farmacia;;;;37.3740166;-5.931198799999947
127;Prieto Rojas, Manuel;Gorrion, 18;41006;;Sevilla;SEVILLA;;Oficina de Farmacia;;;;37.3869323;-5.955888899999991
128;Real Bueno, Jose Maria;A.San Juan dela Cruz s/n.Bda.N.Sra.Reyes;41006;;Sevilla;SEVILLA;;Oficina de Farmacia;;;;37.3747865;-5.94889749999993
129;Rodrigo Calvo, Beatriz;Párroco Antonio Gómez Villalobos, 62;41006;;Sevilla;SEVILLA;;Oficina de Farmacia;;;;37.3721047;-5.960108200000036
130;Rodrigo Calvo, Rosa Maria;Avda. Parque Amate, 4. Acc.A.Farmacia;41006;;Sevilla;SEVILLA;;Oficina de Farmacia;;;;37.3747865;-5.94889749999993
131;Rodríguez Doblado, Pedro;Lisboa, 260;41006;;Sevilla;SEVILLA;;Oficina de Farmacia;;;;37.3702663;-5.953810100000055
132;Rodriguez Gavira, Ana Maria;Juan XXIII, loc-3;41006;;Sevilla;SEVILLA;;Oficina de Farmacia;;;;37.3747865;-5.94889749999993
133;Romero Labourdette, Eduardo;Puerto de Viella, 1 Rochelambert;41006;;Sevilla;SEVILLA;;Oficina de Farmacia;;;;37.3747865;-5.94889749999993
134;Romero Muñoz, Leopoldo Luis;General Ollero, 1;41006;;Sevilla;SEVILLA;;Oficina de Farmacia;;;;37.3857349;-5.949457400000028
135;Rubio Membrives, Mª del Mar;Avda.Juan XXIII, Bl.Romegosa;41006;;Sevilla;SEVILLA;;Oficina de Farmacia;;;;37.3747865;-5.94889749999993
136;Saucedo-Valdés CB;Afan de Ribera, 179;41006;;Sevilla;SEVILLA;;Oficina de Farmacia;;;;37.37107;-5.95581059999995
137;Farmacia Madre de Dios CB;C/ Perseo, 9;41006;;Sevilla;SEVILLA;;Oficina de Farmacia;;;;37.3854301;-5.958288400000015
138;Celti CB;Tarragona, 112;41006;;Sevilla;SEVILLA;;Oficina de Farmacia;;;;37.3739554;-5.955806499999994
139;Farmacia Santuario de la Cabeza S.C.;Parroco Antonio Gómez Villalobos, 153;41006;;Sevilla;SEVILLA;;Oficina de Farmacia;;;;37.3696011;-5.9559099000000515
140;Farmacia Puerto Zegri SC;Puerto de Zegri, 5;41006;;Sevilla;SEVILLA;;Oficina de Farmacia;;;;37.3764997;-5.954665900000009
141;Farmacia Padre Pio CB;Ronda Padre Pio, 4;41006;;Sevilla;SEVILLA;;Oficina de Farmacia;;;;37.371459;-5.943414299999972
142;Parrilla Leon, Ramon;Cortegana,17.Bda.Negrilla;41006;;Sevilla;SEVILLA;;Oficina de Farmacia;;;;37.3747865;-5.94889749999993
143;Cabezas Saura, María Eulalia;Tomas Murube, 22;41007;;Sevilla;SEVILLA;;Farmacia Optica;;;;37.3896446;-5.967636900000002
144;Farmacia Zabala CB;Plaza de Sanchez Mejias, local 103;41007;;Sevilla;SEVILLA;;Farmacia Optica;;;;37.4089824;-5.956824999999981
145;Abad Martin de Eugenio, Pilar;P.S.P.Barrio C Torre 3 Loc. 1 y 2;41007;;Sevilla;SEVILLA;;Oficina de Farmacia;;;;37.4089824;-5.956824999999981
146;Abaurrea Recasens, María;Plaza Los Tarantos, 40;41007;;Sevilla;SEVILLA;;Oficina de Farmacia;;;;37.3929065;-5.967501900000002
147;Del Estad- Vázquez CB;Avd.Kansas City.San Estanislao;41007;;Sevilla;SEVILLA;;Oficina de Farmacia;;;;37.4089824;-5.956824999999981
148;Farmacia Campos Garrido CB;Parque Alcosa. Ciudad de Carlet, 1.;41007;;Sevilla;SEVILLA;;Oficina de Farmacia;;;;37.41229;-5.9282799999999725
149;Farmacia de Mariano CB;Antoñita Colomé, 7 acc F. Pgno.S. Pablo;41007;;Sevilla;SEVILLA;;Oficina de Farmacia;;;;37.4089824;-5.956824999999981
150;Farmacia Morón Gutiérrez CB;Tomas Murube, 45;41007;;Sevilla;SEVILLA;;Oficina de Farmacia;;;;37.3903612;-5.967928000000029
151;Farmacia Osuna CB;Plaza del Martinete, 7. Polg.San Pablo;41007;;Sevilla;SEVILLA;;Oficina de Farmacia;;;;37.4089824;-5.956824999999981
152;Farmacia Pancho CB;Luis Montoto, 85;41007;;Sevilla;SEVILLA;;Oficina de Farmacia;;;;37.3873207;-5.974854100000016
153;García Trigueros, Carmen;Sinai, 43;41007;;Sevilla;SEVILLA;;Oficina de Farmacia;;;;37.3914289;-5.969015099999979
154;Gaviño Garcia, Natividad;Bda. Las Huertas. Avd. Kansas City;41007;;Sevilla;SEVILLA;;Oficina de Farmacia;;;;37.4035604;-5.956797999999935
155;González Ruiz, Consuelo;Monte Tabor,2 esq. Baltasar Gracian;41007;;Sevilla;SEVILLA;;Oficina de Farmacia;;;;37.4089824;-5.956824999999981
156;Mendaro Torres, Ceferino;P.S.P.Avd.Pedro Romero, 39-40;41007;;Sevilla;SEVILLA;;Oficina de Farmacia;;;;37.3994059;-5.958448800000042
157;Albahech Catalina, Adel;Salto de Alvarado,10. Santa Clara;41007;;Sevilla;SEVILLA;;Oficina de Farmacia;;;;37.3955052;-5.952078300000039
158;Peña Peña, Manuel;Plaza de las Lanzas, 12, acc.A;41007;;Sevilla;SEVILLA;;Oficina de Farmacia;;;;37.4089824;-5.956824999999981
159;Peña Griñan, Carmen Mª.;Avenida de Turia, 10 acc. A;41007;;Sevilla;SEVILLA;;Oficina de Farmacia;;;;37.4089824;-5.956824999999981
160;Sánchez-Jauregui Mariano CB;P.S.P.Barrio E.Av.Pedro Romero, 68;41007;;Sevilla;SEVILLA;;Oficina de Farmacia;;;;37.4001079;-5.956815399999982
161;Farmacia Residencial Oriente CB;Avda.Kansas City, 30. Local 33 y 34;41007;;Sevilla;SEVILLA;;Oficina de Farmacia;;;;37.4089824;-5.956824999999981
162;Farmacia Gran Via CB;Avd. Kansas City, 88. Edif. Gran Vía;41007;;Sevilla;SEVILLA;;Oficina de Farmacia;;;;37.40345;-5.957875699999931
163;Palacios Marti, Encarnacion;Linaria,16.Urb.El Gordillo;41007;;Sevilla;SEVILLA;;Oficina de Farmacia;;;;37.4089824;-5.956824999999981
164;Farmacia Peña CB;Previsión,4,Esq. Palma del Rio,12;41008;;Sevilla;SEVILLA;;Oficina de Farmacia;;;;37.4000675;-5.975326699999982
165;Alvarez de Sotomayor Paz, María Teresa;Brenes, 9;41008;;Sevilla;SEVILLA;;Oficina de Farmacia;;;;37.40767;-5.977150199999983
166;Balsera Fernandez, Encarnacion;Corral del Agua,esq.Camino Toros,l.3,nº;41008;;Sevilla;SEVILLA;;Oficina de Farmacia;;;;37.4000675;-5.975326699999982
167;Barbero Rodríguez, Nuria S.;Fontaneros, 2 (Pino Montano);41008;;Sevilla;SEVILLA;;Oficina de Farmacia;;;;37.4233157;-5.961228699999992
168;Barbero Salcedo, Mª. Asuncion;Venecia, 1;41008;;Sevilla;SEVILLA;;Oficina de Farmacia;;;;37.3948457;-5.980051399999979
169;Blázquez Pérez, Dolores María;Avd. del Pueblo Saharaui, 13;41008;;Sevilla;SEVILLA;;Oficina de Farmacia;;;;37.39757100000001;-5.971361699999989
170;Carrascosa Moreno, M.Antonia;Avd. Miraflores, 26;41008;;Sevilla;SEVILLA;;Oficina de Farmacia;;;;37.40060709999999;-5.979476900000009
171;Castro y Ochoa CB;Pino Montano, 110.Pinoflores;41008;;Sevilla;SEVILLA;;Oficina de Farmacia;;;;37.4000675;-5.975326699999982
172;Cristina Pérez Miranda;Mar de Alborán n. 7 (Pino Montano);41008;;Sevilla;SEVILLA;;Oficina de Farmacia;;;;37.418411;-5.969419700000003
173;Fajardo González, Alicia;Parque Doñana,2;41008;;Sevilla;SEVILLA;;Oficina de Farmacia;;;;37.4171488;-5.973606399999994
174;Farmacia Berriatua Montes CB;Alejandro Sawa, 7 acc. A;41008;;Sevilla;SEVILLA;;Oficina de Farmacia;;;;37.4000675;-5.975326699999982
175;Farmacia Caamaño CB;Corral de los Olmos,5. Pino Montano;41008;;Sevilla;SEVILLA;;Oficina de Farmacia;;;;37.4182633;-5.971599999999967
176;Farmacia García Sánchez CB;Nuc.San Diego.1ª Fase.;41008;;Sevilla;SEVILLA;;Oficina de Farmacia;;;;37.4000675;-5.975326699999982
177;Farmacia Mozo CB;Baltasar de Alcázar, 18 aac A.;41008;;Sevilla;SEVILLA;;Oficina de Farmacia;;;;37.4000675;-5.975326699999982
178;Farmacia Navarro Mariscal CB;Avda Cruz Roja, 54;41008;;Sevilla;SEVILLA;;Oficina de Farmacia;;;;37.4022371;-5.981498500000043
179;Farmacia Soler Alvarez CB;Avda.Pino Montano, 10;41008;;Sevilla;SEVILLA;;Oficina de Farmacia;;;;37.4057862;-5.974787500000048
180;Gamarro Moreno, Juan Jose;Carretera de Carmona, 66;41008;;Sevilla;SEVILLA;;Oficina de Farmacia;;;;37.4016836;-5.972710799999959
181;García Ruiz, María Fermina Milagrosa;Esperanza de la Trinidad, 8, local 5;41008;;Sevilla;SEVILLA;;Oficina de Farmacia;;;;37.4000675;-5.975326699999982
182;Herrera Moreno, Francisco;Avd. Miraflores, 74;41008;;Sevilla;SEVILLA;;Oficina de Farmacia;;;;37.4179663;-5.969941199999994
183;López Gutierrez, Mª del Carmen;Avd.San Juan de la Salle, 45;41008;;Sevilla;SEVILLA;;Oficina de Farmacia;;;;37.406999;-5.972679699999958
184;Mazuelos Benítez, Luis María;San Juan Bosco, 32;41008;;Sevilla;SEVILLA;;Oficina de Farmacia;;;;37.39578729999999;-5.977763500000037
185;Murillo Delgado, Francisco Antonio;Nuc. Res. Los Arcos. C/ Ajimez s/n;41008;;Sevilla;SEVILLA;;Oficina de Farmacia;;;;37.4000675;-5.975326699999982
186;Murillo Peinado, Mª Pilar;Avd. Pino Montano.Nuc.Pq.Miraflores bl.5;41008;;Sevilla;SEVILLA;;Oficina de Farmacia;;;;37.3984837;-5.981906400000071
187;Naranjo Gonzalez-Pola, Eduardo;Avda. Cruz Roja, 14;41008;;Sevilla;SEVILLA;;Oficina de Farmacia;;;;37.4004272;-5.982519300000035
188;Ortega de la Rosa, Mª Dolores;Victoria Kent, 5. Edif. Rotonda;41008;;Sevilla;SEVILLA;;Oficina de Farmacia;;;;37.4000675;-5.975326699999982
189;Perez-Tinao Gomez de Salazar, Pilar;Agricultores s/n-Junto Parque Bomberos;41008;;Sevilla;SEVILLA;;Oficina de Farmacia;;;;37.4000675;-5.975326699999982
190;Polo Ramos CB;Cisneo Alto, s/n;41008;;Sevilla;SEVILLA;;Oficina de Farmacia;;;;37.4064197;-5.9707475999999815
191;Gómez Ramos, Fernando;Samaniego n. 48 (antes 18);41008;;Sevilla;SEVILLA;;Oficina de Farmacia;;;;37.3883483;-6.0007737999999335
192;Recio Mir, Luis;Carretera de Carmona, 14;41008;;Sevilla;SEVILLA;;Oficina de Farmacia;;;;37.3985669;-5.979678700000022
193;Robina Fernández, Fernando;Pino Montano. San Diego.4 Fase;41008;;Sevilla;SEVILLA;;Oficina de Farmacia;;;;37.4000675;-5.975326699999982
194;Rodríguez Pérez, Consuelo;Avda. La Barzola nº 34 acc.C.;41008;;Sevilla;SEVILLA;;Oficina de Farmacia;;;;37.4000675;-5.975326699999982
195;Sanchez Garcia, Jose;C.R.Almena Blq.15 Avda. Pino Montano;41008;;Sevilla;SEVILLA;;Oficina de Farmacia;;;;37.4067148;-5.97442239999998
196;Sánchez Luque, Carlos;Camino de los Toros s/n.Pino Montano;41008;;Sevilla;SEVILLA;;Oficina de Farmacia;;;;37.4208886;-5.9686269999999695
197;Sánchez Reyes, Carlos;Cortijo Casillas,Urb.Parq.Flores,Fase IV,Local 13;41008;;Sevilla;SEVILLA;;Oficina de Farmacia;;;;37.4000675;-5.975326699999982
198;Sanchez Reyes, Matilde;Arroyo, 105;41008;;Sevilla;SEVILLA;;Oficina de Farmacia;;;;37.39792;-5.975789999999961
199;Siles Barrera, Clara;Jabugo, 17.;41008;;Sevilla;SEVILLA;;Oficina de Farmacia;;;;37.3979795;-5.977720399999953
200;Tejada Romero, Rafael;Camino de los Toros, 1, local 2;41008;;Sevilla;SEVILLA;;Oficina de Farmacia;;;;37.4000675;-5.975326699999982
201;Farmacia Zodiaco CB;Carretera de Carmona, 88;41008;;Sevilla;SEVILLA;;Oficina de Farmacia;;;;37.4029969;-5.968770100000029
202;Farmacia Pio XII CB;Conde de Halcon, 17;41008;;Sevilla;SEVILLA;;Oficina de Farmacia;;;;37.4045982;-5.978906000000052
203;Las Naciones CB;Parque Hogar Las Naciones Bloq. 27;41008;;Sevilla;SEVILLA;;Oficina de Farmacia;;;;37.4000675;-5.975326699999982
204;Farmacia Núcleo Villegas CB.;Nuc.Villegas Blq.13;41008;;Sevilla;SEVILLA;;Oficina de Farmacia;;;;37.4000675;-5.975326699999982
205;Hernandez Rodríguez, Miguel;Santa Maria de Ordas, 12;41008;;Sevilla;SEVILLA;;Oficina de Farmacia;;;;37.4039135;-5.974597600000038
206;Farmacia Carretera de Carmona CB;Higuera de la Sierra, 2;41008;;Sevilla;SEVILLA;;Oficina de Farmacia;;;;37.4008867;-5.976069300000063
207;Farmacia Comerciales Forjadores CB;Forjadores, 17;41008;;Sevilla;SEVILLA;;Oficina de Farmacia;;;;37.42176329999999;-5.963275100000033
208;Farmacia Peña Guisado CB;Manuel del Valle, 4, esq. Baltasar Alcazar;41008;;Sevilla;SEVILLA;;Oficina de Farmacia;;;;37.4000675;-5.975326699999982
209;Morales Medina CB;Arroyo, 117;41008;;Sevilla;SEVILLA;;Oficina de Farmacia;;;;37.3984718;-5.973859800000014
210;Martín y Rodríguez CB;Avenida Asociación de Vecinos, 5 local 19 y 20;41008;;Sevilla;SEVILLA;;Oficina de Farmacia;;;;37.4000675;-5.975326699999982
211;Farmacia Optica Torrejón CB;Diego de Almagro, 16;41009;;Sevilla;SEVILLA;;Farmacia Optica;;;;37.4119075;-5.98291770000003
212;Alvarez Jimenez, Jose Maria;Adelantado, 18.Bda.Esperanza Macarena;41009;;Sevilla;SEVILLA;;Oficina de Farmacia;;;;37.4101751;-5.985901600000034
213;Argüelles Rodríguez, Agustín;Leon XIII, 7;41009;;Sevilla;SEVILLA;;Oficina de Farmacia;;;;37.4009675;-5.98381500000005
214;Carrasco Martínez-Matamoros, Macarena;Parque Norte-C/A-Bahia de Cadiz-Farmacia;41009;;Sevilla;SEVILLA;;Oficina de Farmacia;;;;37.4101751;-5.985901600000034
215;Díaz Sánchez, María José;Fray Isidoro de Sevilla, 32;41009;;Sevilla;SEVILLA;;Oficina de Farmacia;;;;37.4037618;-5.98325920000002
216;Farmacia Díaz Fagundez CB;Primavera,16-18;41009;;Sevilla;SEVILLA;;Oficina de Farmacia;;;;37.4101176;-5.980727500000057
217;Farmacia León CB;Abril, 11-13.;41009;;Sevilla;SEVILLA;;Oficina de Farmacia;;;;37.4098516;-5.979092499999979
218;Fernández Jiménez, Gonzalo;Manzana 11 L.C. núm. 6;41009;;Sevilla;SEVILLA;;Oficina de Farmacia;;;;37.40549840000001;-5.983987200000001
219;Gomez Carrasco, M.Dolores;Macarena 3 Huertas Bl.17.loc.3-4;41009;;Sevilla;SEVILLA;;Oficina de Farmacia;;;;37.4101751;-5.985901600000034
220;Farmacia Jaén-Seijo SC;Avd.Sanchez Pizjuan esq. Agata,1;41009;;Sevilla;SEVILLA;;Oficina de Farmacia;;;;37.4101751;-5.985901600000034
221;Martinez Botella, Armando;Don Fadrique, 3;41009;;Sevilla;SEVILLA;;Oficina de Farmacia;;;;37.403283;-5.989383999999973
222;Menayo Mena, Federico;Avd. Dr. Fedriani, 13;41009;;Sevilla;SEVILLA;;Oficina de Farmacia;;;;37.4079522;-5.985434700000042
223;Murillo Bermejo, Natalia;Leon XIII. 93;41009;;Sevilla;SEVILLA;;Oficina de Farmacia;;;;37.4068182;-5.982778000000053
224;Olias Valdes, Milagros;Maimonides nº 7, Acc. D;41009;;Sevilla;SEVILLA;;Oficina de Farmacia;;;;37.4101751;-5.985901600000034
225;Pinto Maestre, Carmen;Avda.Sanchez Pizjuan.Bda.Renfe;41009;;Sevilla;SEVILLA;;Oficina de Farmacia;;;;37.4101751;-5.985901600000034
226;Romero Melero Mª José;Bda. El Rocio. c/ Blanca Paloma, 3;41009;;Sevilla;SEVILLA;;Oficina de Farmacia;;;;37.4086915;-5.981846099999984
227;Roviralta Delgado, M.Luisa;Sanchez Pizjuan, 6. Dr.Marañon;41009;;Sevilla;SEVILLA;;Oficina de Farmacia;;;;37.4101751;-5.985901600000034
228;Rubio Rico, Emilio;Playa Isla Canela s/n El Cerezo;41009;;Sevilla;SEVILLA;;Oficina de Farmacia;;;;37.4096659;-5.98400689999994
229;Serra Estrada, Mª Pilar;Plaza Virgen del Pilar, 11;41009;;Sevilla;SEVILLA;;Oficina de Farmacia;;;;37.4059768;-5.980517700000064
230;Toro Mestre, Manuel José;Lopez Azme, 1.Los Naranjos;41009;;Sevilla;SEVILLA;;Oficina de Farmacia;;;;37.4101751;-5.985901600000034
231;Vargas Sanchez, Nuria;Rayo de Luna, 7.Bda.Las Golondrinas;41009;;Sevilla;SEVILLA;;Oficina de Farmacia;;;;37.4101751;-5.985901600000034
232;Farmacia La Carrasca CB;Avd.San Lazaro.Bda.La Carrasca. Blq.A;41009;;Sevilla;SEVILLA;;Oficina de Farmacia;;;;37.4101751;-5.985901600000034
233;Farmacia Polígono Norte CB;Rio de Janeiro,10.Comerciales Plg.Norte.;41009;;Sevilla;SEVILLA;;Oficina de Farmacia;;;;37.4101751;-5.985901600000034
234;Farmacia El Alamillo CB;Camino de Almez nº 1-A (Farmacia);41009;;Sevilla;SEVILLA;;Oficina de Farmacia;;;;37.4101751;-5.985901600000034
235;Farmacia Lora CB;San Vicente de Paul, 14;41010;;Sevilla;SEVILLA;;Farmacia Optica;;;;37.384104;-6.009685999999988
236;Agüera Márquez, Natividad;Virgen de Fatima, 1;41010;;Sevilla;SEVILLA;;Oficina de Farmacia;;;;37.3773268;-6.00411889999998
237;Aguilar García CB;Esperanza de Triana, 38;41010;;Sevilla;SEVILLA;;Oficina de Farmacia;;;;37.3800337;-6.004281699999979
238;Arredondo Aznarte, María Mercedes;Fray Tomas de Berlanga, 6;41010;;Sevilla;SEVILLA;;Oficina de Farmacia;;;;37.3832988;-6.012339500000053
239;Casquete de Prado Montero de Espinosa,Pilar;Castilla, 106;41010;;Sevilla;SEVILLA;;Oficina de Farmacia;;;;37.3884908;-6.007355700000062
240;Correa Marquez, Maria Teresa;Plza. Pedro Gómez, 15, local 1-1;41010;;Sevilla;SEVILLA;;Oficina de Farmacia;;;;37.3822261;-6.012346799999932
241;Cortés Jiménez , Jóse Carlos;Pages del Corro, 164;41010;;Sevilla;SEVILLA;;Oficina de Farmacia;;;;37.3811441;-6.0006084999999985
242;Farmacia Fernández Rojo CB;Manuel Arellano, 40 (Nuc.Santa Ana);41010;;Sevilla;SEVILLA;;Oficina de Farmacia;;;;37.3822261;-6.012346799999932
243;Farmacia Herrera del Rey CB;Aracena, 7;41010;;Sevilla;SEVILLA;;Oficina de Farmacia;;;;37.3847776;-6.01085809999995
244;Farmacia Marín CB;Juan Diaz de Solis, 12;41010;;Sevilla;SEVILLA;;Oficina de Farmacia;;;;37.3784691;-6.0089080000000195
245;Farmacia Morell CB;Lopez de Gomara, 5;41010;;Sevilla;SEVILLA;;Oficina de Farmacia;;;;37.3802;-6.008669999999938
246;García Jiménez, Felisa;Pages del Corro, 81;41010;;Sevilla;SEVILLA;;Oficina de Farmacia;;;;37.3832696;-6.004353199999969
247;García Yanguela, Mercedes;Esperanza de Triana, 31;41010;;Sevilla;SEVILLA;;Oficina de Farmacia;;;;37.3804579;-6.004467599999998
248;Gastalver Lopez, Consuelo;San Jacinto, 13;41010;;Sevilla;SEVILLA;;Oficina de Farmacia;;;;37.3846879;-6.003985199999988
249;López García, Mª. Angustias;Castilla, 5;41010;;Sevilla;SEVILLA;;Oficina de Farmacia;;;;37.3861129;-6.004455699999994
250;Machuca Onieva, Mª de los Remedios;Manuel Arellano,22. Esq. Numancia;41010;;Sevilla;SEVILLA;;Oficina de Farmacia;;;;37.3822261;-6.012346799999932
251;Montoro Sandez, Emilia;Alfareria, 62;41010;;Sevilla;SEVILLA;;Oficina de Farmacia;;;;37.3864947;-6.006073600000036
252;Moya Castro, Pilar Dolores;Trabajo, 24;41010;;Sevilla;SEVILLA;;Oficina de Farmacia;;;;37.3786694;-6.005810999999994
253;Muñoz Ruiz, Angel Jose;Pilar de Gracia, 1;41010;;Sevilla;SEVILLA;;Oficina de Farmacia;;;;37.3810815;-6.002649199999951
254;Murillo Taravillo, M.Luisa;Plaza Altozano, 12;41010;;Sevilla;SEVILLA;;Oficina de Farmacia;;;;37.3849763;-6.003252400000065
255;Norzagaray Fernández, Nieves;Pages del Corro, 36-C;41010;;Sevilla;SEVILLA;;Oficina de Farmacia;;;;37.3851532;-6.006578900000022
256;Ortega Herrera, Amando Jose;Plaza Virgen de la Amargura,4;41010;;Sevilla;SEVILLA;;Oficina de Farmacia;;;;37.3880933;-6.009728799999948
257;Rodríguez-Millán Oliveres,Fernando;Parque Ruben Dario T-1 C/Papa J.Pablo I;41010;;Sevilla;SEVILLA;;Oficina de Farmacia;;;;37.3822261;-6.012346799999932
258;Román García, Francisco;Esperanza de Triana, 13;41010;;Sevilla;SEVILLA;;Oficina de Farmacia;;;;37.3812073;-6.0061064000000215
259;Ruiz Alvarez, Mª Dolores;Dolores de Leon, 32;41010;;Sevilla;SEVILLA;;Oficina de Farmacia;;;;37.3791313;-6.011652000000026
260;Santana Rosa, Irene;San Jacinto, 75;41010;;Sevilla;SEVILLA;;Oficina de Farmacia;;;;37.3825997;-6.007020900000043
261;Tirado Bejarano, Fernando;Avda. de Coria, 21;41010;;Sevilla;SEVILLA;;Oficina de Farmacia;;;;37.3809593;-6.011718100000053
262;Troncoso Blasco, José Manuel;Constancia, 30;41010;;Sevilla;SEVILLA;;Oficina de Farmacia;;;;37.3770795;-6.005730800000038
263;Urpina Arca, Daniel;Evangelista, 20;41010;;Sevilla;SEVILLA;;Oficina de Farmacia;;;;37.3820652;-6.004070299999967
264;Vilches Gargallo, Esther;Santa Cecilia, 13;41010;;Sevilla;SEVILLA;;Oficina de Farmacia;;;;37.3826603;-6.010242500000004
265;Farmacia Plaza de Gongora CB;Plaza de Gongora, 5;41010;;Sevilla;SEVILLA;;Oficina de Farmacia;;;;37.3771339;-6.011440099999959
266;Farmacia Los Angeles CB;Alvar Nuñez n. 34-Nuc. Los Angeles;41010;;Sevilla;SEVILLA;;Oficina de Farmacia;;;;37.3822261;-6.012346799999932
267;Farmacia Asunción Cinco CB;Asuncion, 5;41011;;Sevilla;SEVILLA;;Oficina de Farmacia;;;;37.3790956;-5.997616200000039
268;Martínez Pando, Francisco José;Joaquin Garcia Morato s/n.;41011;;Sevilla;SEVILLA;;Oficina de Farmacia;;;;37.1859242;-5.767573399999947
269;Cuerda Sierra CB;Asuncion,57;41011;;Sevilla;SEVILLA;;Oficina de Farmacia;;;;37.3743249;-5.997400700000071
270;Fagundez Alonso, Margarita;Santa Fe, 9, local 3;41011;;Sevilla;SEVILLA;;Oficina de Farmacia;;;;37.3424297;-6.009701800000016
271;Farmacia Gajardo-González SC;Niebla,4;41011;;Sevilla;SEVILLA;;Oficina de Farmacia;;;;37.378273;-5.999620400000026
272;Farmacia Miguel Sánchez Luque CB;Niebla, 50;41011;;Sevilla;SEVILLA;;Oficina de Farmacia;;;;37.3771717;-6.001871499999993
273;Farmacia Morente García-Delgado CB;Pedro Perez Fernandez, 16;41011;;Sevilla;SEVILLA;;Oficina de Farmacia;;;;37.3737361;-6.001106199999981
274;González Aguilar, Cristina Ana;Fernando IV, 4;41011;;Sevilla;SEVILLA;;Oficina de Farmacia;;;;37.3737361;-5.99529670000004
275;Gonzalez Molina, Mercedes;Juan Ramon Jimenez, 14;41011;;Sevilla;SEVILLA;;Oficina de Farmacia;;;;37.3739046;-5.998880299999996
276;Jiménez Pérez, Estrella;Virgen de la Cinta, 27;41011;;Sevilla;SEVILLA;;Oficina de Farmacia;;;;37.3725419;-5.999839800000018
277;Martinez Rodriguez Colmenares, Rosario;Asuncion, 31;41011;;Sevilla;SEVILLA;;Oficina de Farmacia;;;;37.3769811;-5.997561799999971
278;Mirón González, María Cristina;Niebla, 41;41011;;Sevilla;SEVILLA;;Oficina de Farmacia;;;;37.3758068;-6.0041535000000295
279;Moreno Morales, Jacinto;Virgen de Loreto, 22;41011;;Sevilla;SEVILLA;;Oficina de Farmacia;;;;37.3757522;-5.998511300000018
280;Moreno Roca, Carmen;Asunción, 84. Edif. Presidente local B 1;41011;;Sevilla;SEVILLA;;Oficina de Farmacia;;;;37.3424297;-6.009701800000016
281;Pares Carpio, Leonor;Fernando IV, 44;41011;;Sevilla;SEVILLA;;Oficina de Farmacia;;;;37.373637;-6.003201200000035
282;Rodriguez Duvisón CB;Virgen de Lujan, 50;41011;;Sevilla;SEVILLA;;Oficina de Farmacia;;;;37.3747514;-6.00307399999997
283;Romero Lopez de Tejada, Rosario;Padre Damian, 4;41011;;Sevilla;SEVILLA;;Oficina de Farmacia;;;;37.3749755;-6.000054399999954
284;Saldaña Morales, Margarita;Juan Sebastian Elcano, 20;41011;;Sevilla;SEVILLA;;Oficina de Farmacia;;;;37.3755574;-5.996020899999962
285;Villalba Orellana, Pedro A.;Republica Argentina, 10;41011;;Sevilla;SEVILLA;;Oficina de Farmacia;;;;37.3794866;-5.99920910000003
286;Bono Ungueti, Blanca;Avda. de Finlandia, Manzana 8. Los Bermejales;41012;;Sevilla;SEVILLA;;Oficina de Farmacia;;;;37.3541523;-5.988545599999952
287;Abascal Alonso, Fernando;Avd.Jerez,s/n.Urb.Jardines de Hercules,1ªfase,man2;41012;;Sevilla;SEVILLA;;Farmacia Optica;;;;37.3541523;-5.988545599999952
288;Farmacia García-Miña SC;Reina Mercedes, 17;41012;;Sevilla;SEVILLA;;Oficina de Farmacia;;;;37.3621871;-5.985977899999966
289;Farmacia Hermanos Zambrano CB;Avda. Francia, 59(BIS).Los Bermejales;41012;;Sevilla;SEVILLA;;Oficina de Farmacia;;;;37.3541523;-5.988545599999952
290;Guillén Gea, Antonia María;Avenida de la Raza, 3;41012;;Sevilla;SEVILLA;;Oficina de Farmacia;;;;37.3676863;-5.9893065999999635
291;Hidalgo Montaño, Amparo;Dresde,3 esq.Bruselas;41012;;Sevilla;SEVILLA;;Oficina de Farmacia;;;;37.3541523;-5.988545599999952
292;Machuca de Castro, Jesus;Avda. de Suecia. blq.1, local 1. Los Bermejales;41012;;Sevilla;SEVILLA;;Oficina de Farmacia;;;;37.3541523;-5.988545599999952
293;Moron Ledro, Antonio;Paez de Rivera, 12-bajo izquierda-;41012;;Sevilla;SEVILLA;;Oficina de Farmacia;;;;37.3541523;-5.988545599999952
294;Moron Ledro, Ramona;Corbeta, 3. Bda.Elcano;41012;;Sevilla;SEVILLA;;Oficina de Farmacia;;;;37.3541523;-5.988545599999952
295;Núñez Valdés, Rosario;Reina Mercedes, 33;41012;;Sevilla;SEVILLA;;Oficina de Farmacia;;;;37.3594681;-5.9860762000000705
296;Farmacia Heliópolis CB;Padre Garcia Tejero, 11;41012;;Sevilla;SEVILLA;;Oficina de Farmacia;;;;37.356287;-5.984875699999975
297;Farmacia Los Bermejales CB;Po.Europa n 2 esq. Av.Francia (Los Bermejales);41012;;Sevilla;SEVILLA;;Oficina de Farmacia;;;;37.3541523;-5.988545599999952
298;Sanz Soriano, Juan Antonio;Avd. Alemania, 19 -2 a, manzana 1.6;41012;;Sevilla;SEVILLA;;Oficina de Farmacia;;;;37.3541523;-5.988545599999952
299;Amo Fernandez, Celestino Ign.;Castillo Alcala de Guadaira, 25;41013;;Sevilla;SEVILLA;;Oficina de Farmacia;;;;37.359626;-5.976323600000001
300;Bejarano Carmona, Concepción;Cantico, 1. Acc. B;41013;;Sevilla;SEVILLA;;Oficina de Farmacia;;;;37.3552204;-5.967396699999995
301;Blanco Fernández-Castaño, Carla Mª;Colombia, 10;41013;;Sevilla;SEVILLA;;Oficina de Farmacia;;;;37.3697016;-5.982265200000029
302;De Miguel Lara, Antonio;Alcalde Juan Fdez.-esquina Avion 4 Vientos 16;41013;;Sevilla;SEVILLA;;Oficina de Farmacia;;;;37.3552204;-5.967396699999995
303;Farmacia Borrego CB;Juan Pablo, 6;41013;;Sevilla;SEVILLA;;Oficina de Farmacia;;;;37.3778827;-6.009607899999992
304;Farmacia García-Montaño CB;Tabladilla, 8;41013;;Sevilla;SEVILLA;;Oficina de Farmacia;;;;37.3674967;-5.983092700000043
305;Farmacia Gómez Rubio CB;Coop.Vvdas.Giralda Sur.Blq.5. Polg.Sur;41013;;Sevilla;SEVILLA;;Oficina de Farmacia;;;;37.3552204;-5.967396699999995
306;Farmacia Murillo CB;Puebla de las Mujeres.;41013;;Sevilla;SEVILLA;;Oficina de Farmacia;;;;37.3706368;-5.974017900000035
307;Farmacia Neto del Rio CB;Castillo de Constantina, 4;41013;;Sevilla;SEVILLA;;Oficina de Farmacia;;;;37.36113599999999;-5.978476900000032
308;Farmacia Velastegui Tosina CB;Orfebre Cayetano Glez., 2-4 Polg.Sur;41013;;Sevilla;SEVILLA;;Oficina de Farmacia;;;;37.3552204;-5.967396699999995
309;Torres Jiménez, Mª Belén;Genaro Parlade, 10 local B;41013;;Sevilla;SEVILLA;;Oficina de Farmacia;;;;37.3552204;-5.967396699999995
310;Fernández DHerbe, Mª. Amelia;Colombia, 5;41013;;Sevilla;SEVILLA;;Oficina de Farmacia;;;;37.3697419;-5.9847720999999865
311;Florido Perez, Maria Reyes;Dña.Clarines s/n-semiesq.C/Almirante To;41013;;Sevilla;SEVILLA;;Oficina de Farmacia;;;;37.3552204;-5.967396699999995
312;Fuentes Castillo, Maria Luisa;P.Jose Sebastian Bandaran B.Murillo;41013;;Sevilla;SEVILLA;;Oficina de Farmacia;;;;37.3589733;-5.980299800000012
313;Govantes Pozo, Marta;Avd. de la Paz, 43;41013;;Sevilla;SEVILLA;;Oficina de Farmacia;;;;37.3719007;-5.97151759999997
314;Hernández del Manzano, José Augusto;Felipe II, 32;41013;;Sevilla;SEVILLA;;Oficina de Farmacia;;;;37.3716195;-5.9797000999999455
315;López Benitez, Fernando;Ntra. Sra. de la Oliva, Bloq. 134-135;41013;;Sevilla;SEVILLA;;Oficina de Farmacia;;;;37.3552204;-5.967396699999995
316;López Fernández, Mª. Eugenia;Plaza Vicente Aleixandre, 1, local 2;41013;;Sevilla;SEVILLA;;Oficina de Farmacia;;;;37.3552204;-5.967396699999995
317;Mª Auxiliadora, Rafael y Mª Carmen Laguillo;Bda. La Oliva-Loc. Comerciales 8;41013;;Sevilla;SEVILLA;;Oficina de Farmacia;;;;37.3552204;-5.967396699999995
318;Magaña Suárez, Mª de las Mercedes;Av.Paz-Edif.Giralda-Parc.4.-loc.13 y 14;41013;;Sevilla;SEVILLA;;Oficina de Farmacia;;;;37.3552204;-5.967396699999995
319;Melendez Bello, Carlota;Avda. Letanias 14-15;41013;;Sevilla;SEVILLA;;Oficina de Farmacia;;;;37.36149;-5.9638199999999415
320;Martin Cartes, Rafael;Victoria Domínguez Cerrato, 7 Loc 78 Polg. Sur;41013;;Sevilla;SEVILLA;;Oficina de Farmacia;;;;37.3552204;-5.967396699999995
321;Martin de Oliva Frois, Reyes;Manuel Siurot, 46-Chalet San Agustin;41013;;Sevilla;SEVILLA;;Oficina de Farmacia;;;;37.3552204;-5.967396699999995
322;Montoto Lopez, M.Josefa;Avion Cuatro Vientos, 8;41013;;Sevilla;SEVILLA;;Oficina de Farmacia;;;;37.3750785;-5.974750999999969
323;Morales Millan, Mª Teresa;Bda.Ntra.Sra.Oliva Bl. 59 y 60;41013;;Sevilla;SEVILLA;;Oficina de Farmacia;;;;37.3662062;-5.970506300000011
324;Ojeda García, Francisco Enrique;Porvenir, 29;41013;;Sevilla;SEVILLA;;Oficina de Farmacia;;;;37.3725411;-5.981784800000014
325;Pérez González, Margarita;Guadalimar, 12 acc.Las Palmeras.;41013;;Sevilla;SEVILLA;;Oficina de Farmacia;;;;37.3552204;-5.967396699999995
326;Puerta Puerta, Francisco;Pilar Bardem, 8;41013;;Sevilla;SEVILLA;;Oficina de Farmacia;;;;37.37216;-5.975270000000023
327;Rider Perez, Esperanza;Avd.Ramón Carande n.5;41013;;Sevilla;SEVILLA;;Oficina de Farmacia;;;;37.3743866;-5.978857400000038
328;Ruiz Millan, Maria Dolores;R.Tamarguillo-Ed.Rocio Sur I-Local 2 y 4;41013;;Sevilla;SEVILLA;;Oficina de Farmacia;;;;37.3552204;-5.967396699999995
329;Tirado Bejarano, Matilde;Felipe II, 17;41013;;Sevilla;SEVILLA;;Oficina de Farmacia;;;;37.3719842;-5.982627600000001
330;Sánchez Galiana y Sánchez Balsera;Manuel Siurot, 3;41013;;Sevilla;SEVILLA;;Oficina de Farmacia;;;;37.3669734;-5.984793800000034
331;Vaquero Prada, Juan Pedro;Ramirez de Bustamante, 22;41013;;Sevilla;SEVILLA;;Oficina de Farmacia;;;;37.3689063;-5.976299400000016
332;Velasco Godoy, Antonia Jesús;Avd. de la Paz, 91;41013;;Sevilla;SEVILLA;;Oficina de Farmacia;;;;37.3673667;-5.96593740000003
333;Farmacia Tiro de Linea CB;Lora del Rio, 26;41013;;Sevilla;SEVILLA;;Oficina de Farmacia;;;;37.3683172;-5.974356599999965
334;Farmacia Guadaira SC;Prolong.Avd.Manuel Siurot, 83;41013;;Sevilla;SEVILLA;;Oficina de Farmacia;;;;37.3570449;-5.979192300000022
335;Farmacia Bami 19 CB;Bami, 19;41013;;Sevilla;SEVILLA;;Oficina de Farmacia;;;;37.3594929;-5.97835740000005
336;Cansino Calvo, Fernando;Asencio y Toledo, 40;41014;Bellavista;Sevilla;SEVILLA;;Oficina de Farmacia;;;;37.3249169;-5.968199499999969
337;Illanes Fraile, Julio Jose;Avda. de Bellavista, 145, local B;41014;Bellavista;Sevilla;SEVILLA;;Oficina de Farmacia;;;;37.3200497;-5.976388300000053
338;Jacinto Marín, Mª: José;Guadalajara, 111 ;41014;Bellavista;Sevilla;SEVILLA;;Oficina de Farmacia;;;;37.321098;-5.9671118999999635
339;Valera Ceres, Ignacio;C/Perséfone esq. a C/Selene, local 1.Edf.Uralita;41014;;Sevilla;SEVILLA;;Oficina de Farmacia;;;;37.3257942;-5.970039899999961
340;Ojeda Casares, Manuel;C/ Traviesa,9, Acc.B, Manzana A-5;41015;;Sevilla;SEVILLA;;Farmacia Optica;;;;37.439299;-5.988545599999952
341;Arenas Vargas, Manuel;Riopiedra, 3;41015;San Jeronimo;Sevilla;SEVILLA;;Oficina de Farmacia;;;;37.4220794;-5.98661119999997
342;Ceballos Carbonero, Pablo Joaquín;C/ Estrella Betelgeuse, 14 local A acc. 3-D;41015;;Sevilla;SEVILLA;;Oficina de Farmacia;;;;37.439299;-5.988545599999952
343;Farmacia Salas CB;Huerta Papachinas;41015;San Jeronimo;Sevilla;SEVILLA;;Oficina de Farmacia;;;;37.426306;-5.986433000000034
344;Gaviño Carabantes, Esperanza Patricia;Mejillon, 6;41015;San Jeronimo;Sevilla;SEVILLA;;Oficina de Farmacia;;;;37.429203;-5.982203199999958
345;Martin-Hinojosa Torres Linero, Mª.Manuela;Buzón esquina a c/ Estafeta, 2;41015;;Sevilla;SEVILLA;;Oficina de Farmacia;;;;37.439299;-5.988545599999952
346;Ramírez Liñan, Carlos;Medina y Galnares, 149 accB.;41015;;Sevilla;SEVILLA;;Oficina de Farmacia;;;;37.439299;-5.988545599999952
347;Ruiz Gutierrez, Joaquin;Navarra, 21;41015;San Jeronimo;Sevilla;SEVILLA;;Oficina de Farmacia;;;;37.4241756;-5.984732200000053
348;Canopus CB;Estrella Canopus, 30;41015;;Sevilla;SEVILLA;;Oficina de Farmacia;;;;37.4279956;-5.96809810000002
349;Farmacia García González CB;Torremejias, 48;41016;;Sevilla;SEVILLA;;Farmacia Optica;;;;37.3844083;-5.903080100000011
350;Barbudo Yuste, María;Mirian, 44-Torreblanca;41016;;Sevilla;SEVILLA;;Oficina de Farmacia;;;;37.3830404;-5.912030400000049
351;González Aguilar, Mª de las Nieves;Torrelaguna, 4;41016;;Sevilla;SEVILLA;;Oficina de Farmacia;;;;37.3855802;-5.909071600000061
352;Perez Ostos, Antonio;C/Torrelaguna, 54 C, esquina C/ Torrella, 40 Torre;41016;;Sevilla;SEVILLA;;Oficina de Farmacia;;;;37.3941873;-5.880235699999957
353;Farmacia Rodríguez Canovas SC;Manuel Barrios Masero, 12 Torreblanca;41017;;Sevilla;SEVILLA;;Oficina de Farmacia;;;;37.3816407;-5.90289359999997
354;Rodríguez-Buzón Morales, Gonzálo Federico;Abedul, 19 Torreblanca;41017;;Sevilla;SEVILLA;;Oficina de Farmacia;;;;37.3831892;-5.899717099999975
355;Abascal Alonso, Moises;Virgen de la Encarnación, 4;41018;;Sevilla;SEVILLA;;Oficina de Farmacia;;;;37.388357;-5.980316399999992
356;De Miguel Albarreal, Elena;Vermondo Resta-Manzana 3-Junto Edif.Viapol;41018;;Sevilla;SEVILLA;;Oficina de Farmacia;;;;37.3838341;-5.98061389999998
357;Revelles Lirola, Mª Trinidad;Chaves Nogales, 8, acc.B;41018;;Sevilla;SEVILLA;;Oficina de Farmacia;;;;37.3838341;-5.98061389999998
358;Rivero Curado, Juan;Virgen de Valvanera, 13;41018;;Sevilla;SEVILLA;;Oficina de Farmacia;;;;37.3857068;-5.976654499999995
359;Farmacia San Bernardo CB;Juan Mata Carriazo, 5;41018;;Sevilla;SEVILLA;;Oficina de Farmacia;;;;37.3824061;-5.983585199999993
360;González Aguilar, Olga Dolores;Valdezorras.c/ Liebre, 20;41019;;Sevilla;SEVILLA;;Oficina de Farmacia;;;;37.4303082;-5.925582299999974
361;Inmaculada Portero y Javier Baquero;Avda. Ciudad de Chiva 26 Parque Alcosa;41019;;Sevilla;SEVILLA;;Oficina de Farmacia;;;;37.4094563;-5.923914599999989
362;Miro Jodral, M. Dolores;Ildefonso Marañon, 8 Alcosa;41019;;Sevilla;SEVILLA;;Oficina de Farmacia;;;;37.4110756;-5.921967600000016
363;Rangel Garcia, Purificacion;Beata Ana Mª Javouhey.Edif.Averrores III;41019;;Sevilla;SEVILLA;;Oficina de Farmacia;;;;37.4093103;-5.92380049999997
364;López Sola, Juan Antonio;Avenida Emilio Lemos, 32;41020;Sevilla Este;Sevilla;SEVILLA;;Farmacia Optica;;;;37.4044327;-5.916175899999985
365;Acosta Pelaez, José Luis;Fuentemilanos 6 acc B, esquina c/ Barajas 7;41020;Sevilla Este;Sevilla;SEVILLA;;Oficina de Farmacia;;;;37.42162;-5.935609900000031
366;Alonso Buenaposada, José Manuel;Milano Plomizo, local E,número 3;41020;Sevilla Este;Sevilla;SEVILLA;;Oficina de Farmacia;;;;37.3977597;-5.926879699999972
367;Arias San Román, Concepción;Urb.Las Gondolas loc.1 ;41020;Sevilla Este;Sevilla;SEVILLA;;Oficina de Farmacia;;;;37.3977597;-5.926879699999972
368;Eugenia Morales Cañadas CB;El Alquian nº 9-G;41020;Sevilla Este;Sevilla;SEVILLA;;Oficina de Farmacia;;;;37.3871792;-5.921522500000037
369;Farmacia Laboratorio Menacho Herrera CB;C/ Japon nº 26, Accesoria C - Farmacia;41020;Sevilla Este;Sevilla;SEVILLA;;Oficina de Farmacia;;;;37.3977597;-5.926879699999972
370;MartÍnez RodrÍguez Colmenares, Francisco I.;Fernanda Calado Rosales, 1 acc D;41020;Sevilla Este;Sevilla;SEVILLA;;Oficina de Farmacia;;;;37.3977597;-5.926879699999972
371;Menayo Mariscal CB;Médicos sin Fronteras, 8;41020;Sevilla Este;Sevilla;SEVILLA;;Oficina de Farmacia;;;;37.4002447;-5.923671900000045
372;Moya Flores, Marta;C/ Urbano Orad, 9;41020;Sevilla Este;Sevilla;SEVILLA;;Oficina de Farmacia;;;;37.4029764;-5.929680100000041
373;Pérez Ruiz, Macarena;Av. de las Ciencias, 18 Acc.G-Urb. Entreflores;41020;Sevilla Este;Sevilla;SEVILLA;;Oficina de Farmacia;;;;37.3977597;-5.926879699999972
374;Rico Oliveros, Sofia;Flor de Retama, 2 local 6 y 7.;41020;Sevilla Este;Sevilla;SEVILLA;;Oficina de Farmacia;;;;37.3977597;-5.926879699999972
375;Rivas Díaz, Manuel;Flor de Salvia,Res.Azahares,blq.2;41020;Sevilla Este;Sevilla;SEVILLA;;Oficina de Farmacia;;;;37.3977597;-5.926879699999972
376;Sánchez Carranza, MªJosé;Cueva Menga,1,B.5,L.10 Las Góndolas M-3;41020;Sevilla Este;Sevilla;SEVILLA;;Oficina de Farmacia;;;;37.3977597;-5.926879699999972
377;Farmacia Aleste, SC;Av.de las Ciencias n. 49, Acc. F.;41020;Sevilla Este;Sevilla;SEVILLA;;Oficina de Farmacia;;;;37.3977597;-5.926879699999972
378;Farmacia Flor de Azalea CB;Flor de Azalea, 4;41020;Sevilla Este;Sevilla;SEVILLA;;Oficina de Farmacia;;;;37.3920521;-5.919263399999977
379;Cortés Jiménez, Juan Pedro;Cueva de la Pileta número 2, Blq. 10, local 19;41020;Sevilla Este;Sevilla;SEVILLA;;Oficina de Farmacia;;;;37.3977597;-5.926879699999972
380;Palma del Moral, Juan Miguel;Miguel de Unamuno, 10 acc. E;41020;Sevilla Este;Sevilla;SEVILLA;;Oficina de Farmacia;;;;37.3977597;-5.926879699999972
381;Farmacia Sevilla Este SC;Avda. de las Ciencias nº 33, accesoria Acc;41020;Sevilla Este;Sevilla;SEVILLA;;Oficina de Farmacia;;;;37.3977597;-5.926879699999972
382;Garcia Garcia, Daniel;Avd.Innovación. Edif.Minister. local 1;41020;Sevilla Este;Sevilla;SEVILLA;;Oficina de Farmacia;;;;37.3977597;-5.926879699999972
383;Blasco Lorenzo, Pilar;Urbanización La Moraleja nº 14, acc. A;41020;Sevilla Este;Sevilla;SEVILLA;;Oficina de Farmacia;;;;37.3977597;-5.926879699999972
384;Cirera Guiraum, Trinidad;Emilio Lemos nº 21;41020;Sevilla Este;Sevilla;SEVILLA;;Oficina de Farmacia;;;;37.40313;-5.922149999999988
385;Lope Monasterio, Esther;Avd. de las Ciencias, 34. Edif. Feria de Muestras;41020;Sevilla Este;Sevilla;SEVILLA;;Oficina de Farmacia;;;;37.3977597;-5.926879699999972
386;Martínez Fernández, Dolores Auxiliadora;Edif.de la Terminal de Salida, Aeropuerto S. Pablo;41020;Aeropuerto ;Sevilla;SEVILLA;;Oficina de Farmacia;;;;37.4221695;-5.904103299999974
387;Moreno Dominguez, Rafael;Hong-Kong, 9. Sevilla Este;41020;Sevilla Este;Sevilla;SEVILLA;;Oficina de Farmacia;;;;37.3977597;-5.926879699999972
388;Sanchez Varilla, Josefa;Hockey, 24. Urb. Cortijo Guzman, 64;41020;Sevilla Este;Sevilla;SEVILLA;;Oficina de Farmacia;;;;37.3977597;-5.926879699999972
389;Rodriguez Villalba, Juan J.;Eufrates n. 5 acc. D (Urb.Jardines del Edén);41020;Sevilla Este;Sevilla;SEVILLA;;Oficina de Farmacia;;;;37.3977597;-5.926879699999972